DELTA 2 R/B             
1 25876U 99041E   26065.04371818  .00001313  00000+0  24927-3 0  9996
2 25876  51.7640 315.8429 0502356 337.6757  20.2978 14.11825671362515
HELIOS 1B               
1 25977U 99064A   26065.48541299  .00002718  00000+0  30481-3 0  9995
2 25977  98.1697 327.6348 0002495  79.2297 280.9200 14.87683680684786
TERRA                   
1 25994U 99068A   26065.65067621  .00000612  00000+0  13381-3 0  9990
2 25994  97.9599 119.2014 0002515 158.6585 353.5740 14.61011063394633
SL-16 R/B               
1 26070U 00006B   26065.40925463  .00000077  00000+0  63491-4 0  9993
2 26070  71.0012 104.7358 0017007 194.8070 165.2557 14.15825561348093
TITAN 4B R/B            
1 26474U 00047B   26065.51613153  .00005783  00000+0  36169-3 0  9998
2 26474  67.9894  49.4334 0038309  39.1527 321.2382 15.09524611392431
ENVISAT                 
1 27386U 02009A   26065.42320595  .00000195  00000+0  76993-4 0  9998
2 27386  98.3724  19.0984 0001329  84.2630  26.7022 14.39035546258701
IDEFIX & ARIANE 42P R/B 
1 27422U 02021B   26065.55922276  .00000414  00000+0  17399-3 0  9999
2 27422  98.5866   4.2029 0011391 191.5536 168.5388 14.31023607243570
AQUA                    
1 27424U 02022A   26065.60454138  .00001487  00000+0  30653-3 0  9994
2 27424  98.4171  32.9133 0000597  65.7545 354.4897 14.61968309268288
CZ-4B R/B               
1 27432U 02024C   26065.10532499  .00000058  00000+0  52574-4 0  9997
2 27432  98.8845 118.5299 0050652  34.3103 354.9841 14.14546941228734
MIDORI II (ADEOS-II)    
1 27597U 02056A   26065.37347090  .00000437  00000+0  18962-3 0  9997
2 27597  98.7766  23.8282 0001715  47.4119 312.7207 14.29282100209822
H-2A R/B                
1 27601U 02056E   26065.65832333  .00000380  00000+0  14745-3 0  9995
2 27601  98.3198  26.1394 0070321 169.6588   2.9895 14.33758444213672
CZ-4B R/B               
1 28059U 03049C   26065.42649975  .00000566  00000+0  14143-3 0  9997
2 28059  98.6877  60.2032 0047137 241.0713 118.5751 14.55016718186128
CZ-2C R/B               
1 28222U 04012C   26065.60259388  .00069578  00000+0  72936-3 0  9997
2 28222  97.7237 130.6038 0013259 321.9076  38.1243 15.64069108203794
SL-16 R/B               
1 28353U 04021B   26065.48708519 -.00000214  00000+0 -86556-4 0  9991
2 28353  70.9992 239.2136 0003814  14.6420 345.4812 14.14598982122382
CZ-4B R/B               
1 28415U 04035C   26065.50620147  .00010046  00000+0  35420-3 0  9993
2 28415  97.3498  99.7865 0031327 343.1519  16.8678 15.28993105179420
CZ-2C R/B               
1 28480U 04046B   26065.33022058  .00000158  00000+0  73667-4 0  9994
2 28480  98.1986 340.5232 0139692 164.3470 196.2098 14.26990691108022
ARIANE 5 R/B            
1 28499U 04049H   26065.39898544  .00001086  00000+0  12595-3 0  9997
2 28499  98.2619 233.7328 0084173   2.6061 357.5574 14.85258905145301
