[{"OBJECT_NAME":"DELTA 2 R/B","OBJECT_ID":"1999-041E","EPOCH":"2026-03-06T01:02:57.250752","MEAN_MOTION":14.11825671,"ECCENTRICITY":0.05023565,"INCLINATION":51.764,"RA_OF_ASC_NODE":315.8429,"ARG_OF_PERICENTER":337.6757,"MEAN_ANOMALY":20.2978,"EPHEMERIS_TYPE":0,"CLASSIFICATION_TYPE":"U","NORAD_CAT_ID":25876,"ELEMENT_SET_NO":999,"REV_AT_EPOCH":36251,"BSTAR":0.00024926631,"MEAN_MOTION_DOT":1.313e-5,"MEAN_MOTION_DDOT":0},{"OBJECT_NAME":"HELIOS 1B","OBJECT_ID":"1999-064A","EPOCH":"2026-03-06T11:38:59.682336","MEAN_MOTION":14.8768368,"ECCENTRICITY":0.0002495,"INCLINATION":98.1697,"RA_OF_ASC_NODE":327.6348,"ARG_OF_PERICENTER":79.2297,"MEAN_ANOMALY":280.92,"EPHEMERIS_TYPE":0,"CLASSIFICATION_TYPE":"U","NORAD_CAT_ID":25977,"ELEMENT_SET_NO":999,"REV_AT_EPOCH":68478,"BSTAR":0.00030481179,"MEAN_MOTION_DOT":2.718e-5,"MEAN_MOTION_DDOT":0},{"OBJECT_NAME":"TERRA","OBJECT_ID":"1999-068A","EPOCH":"2026-03-06T15:36:58.424544","MEAN_MOTION":14.61011063,"ECCENTRICITY":0.00025159,"INCLINATION":97.9599,"RA_OF_ASC_NODE":119.2014,"ARG_OF_PERICENTER":158.6585,"MEAN_ANOMALY":353.574,"EPHEMERIS_TYPE":0,"CLASSIFICATION_TYPE":"U","NORAD_CAT_ID":25994,"ELEMENT_SET_NO":999,"REV_AT_EPOCH":39463,"BSTAR":0.00013381279,"MEAN_MOTION_DOT":6.12e-6,"MEAN_MOTION_DDOT":0},{"OBJECT_NAME":"SL-16 R/B","OBJECT_ID":"2000-006B","EPOCH":"2026-03-06T09:49:19.600032","MEAN_MOTION":14.15825561,"ECCENTRICITY":0.00170079,"INCLINATION":71.0012,"RA_OF_ASC_NODE":104.7358,"ARG_OF_PERICENTER":194.807,"MEAN_ANOMALY":165.2557,"EPHEMERIS_TYPE":0,"CLASSIFICATION_TYPE":"U","NORAD_CAT_ID":26070,"ELEMENT_SET_NO":999,"REV_AT_EPOCH":34809,"BSTAR":6.3490821e-5,"MEAN_MOTION_DOT":7.7e-7,"MEAN_MOTION_DDOT":0},{"OBJECT_NAME":"TITAN 4B R/B","OBJECT_ID":"2000-047B","EPOCH":"2026-03-06T12:23:13.764192","MEAN_MOTION":15.09524611,"ECCENTRICITY":0.00383094,"INCLINATION":67.9894,"RA_OF_ASC_NODE":49.4334,"ARG_OF_PERICENTER":39.1527,"MEAN_ANOMALY":321.2382,"EPHEMERIS_TYPE":0,"CLASSIFICATION_TYPE":"U","NORAD_CAT_ID":26474,"ELEMENT_SET_NO":999,"REV_AT_EPOCH":39243,"BSTAR":0.00036168957,"MEAN_MOTION_DOT":5.783e-5,"MEAN_MOTION_DDOT":0},{"OBJECT_NAME":"ENVISAT","OBJECT_ID":"2002-009A","EPOCH":"2026-03-06T10:09:24.994080","MEAN_MOTION":14.39035546,"ECCENTRICITY":0.00013298,"INCLINATION":98.3724,"RA_OF_ASC_NODE":19.0984,"ARG_OF_PERICENTER":84.263,"MEAN_ANOMALY":26.7022,"EPHEMERIS_TYPE":0,"CLASSIFICATION_TYPE":"U","NORAD_CAT_ID":27386,"ELEMENT_SET_NO":999,"REV_AT_EPOCH":25870,"BSTAR":7.6992669e-5,"MEAN_MOTION_DOT":1.95e-6,"MEAN_MOTION_DDOT":0},{"OBJECT_NAME":"IDEFIX & ARIANE 42P R/B","OBJECT_ID":"2002-021B","EPOCH":"2026-03-06T13:25:16.846464","MEAN_MOTION":14.31023607,"ECCENTRICITY":0.00113916,"INCLINATION":98.5866,"RA_OF_ASC_NODE":4.2029,"ARG_OF_PERICENTER":191.5536,"MEAN_ANOMALY":168.5388,"EPHEMERIS_TYPE":0,"CLASSIFICATION_TYPE":"U","NORAD_CAT_ID":27422,"ELEMENT_SET_NO":999,"REV_AT_EPOCH":24357,"BSTAR":0.00017399389,"MEAN_MOTION_DOT":4.14e-6,"MEAN_MOTION_DDOT":0},{"OBJECT_NAME":"AQUA","OBJECT_ID":"2002-022A","EPOCH":"2026-03-06T14:30:32.375232","MEAN_MOTION":14.61968309,"ECCENTRICITY":5.978e-5,"INCLINATION":98.4171,"RA_OF_ASC_NODE":32.9133,"ARG_OF_PERICENTER":65.7545,"MEAN_ANOMALY":354.4897,"EPHEMERIS_TYPE":0,"CLASSIFICATION_TYPE":"U","NORAD_CAT_ID":27424,"ELEMENT_SET_NO":999,"REV_AT_EPOCH":26828,"BSTAR":0.0003065269,"MEAN_MOTION_DOT":1.487e-5,"MEAN_MOTION_DDOT":0},{"OBJECT_NAME":"CZ-4B R/B","OBJECT_ID":"2002-024C","EPOCH":"2026-03-06T02:31:40.079136","MEAN_MOTION":14.14546941,"ECCENTRICITY":0.00506527,"INCLINATION":98.8845,"RA_OF_ASC_NODE":118.5299,"ARG_OF_PERICENTER":34.3103,"MEAN_ANOMALY":354.9841,"EPHEMERIS_TYPE":0,"CLASSIFICATION_TYPE":"U","NORAD_CAT_ID":27432,"ELEMENT_SET_NO":999,"REV_AT_EPOCH":22873,"BSTAR":5.2573805e-5,"MEAN_MOTION_DOT":5.8e-7,"MEAN_MOTION_DDOT":0},{"OBJECT_NAME":"MIDORI II (ADEOS-II)","OBJECT_ID":"2002-056A","EPOCH":"2026-03-06T08:57:47.885760","MEAN_MOTION":14.292821,"ECCENTRICITY":0.00017156,"INCLINATION":98.7766,"RA_OF_ASC_NODE":23.8282,"ARG_OF_PERICENTER":47.4119,"MEAN_ANOMALY":312.7207,"EPHEMERIS_TYPE":0,"CLASSIFICATION_TYPE":"U","NORAD_CAT_ID":27597,"ELEMENT_SET_NO":999,"REV_AT_EPOCH":20982,"BSTAR":0.00018962341,"MEAN_MOTION_DOT":4.37e-6,"MEAN_MOTION_DDOT":0},{"OBJECT_NAME":"H-2A R/B","OBJECT_ID":"2002-056E","EPOCH":"2026-03-06T15:47:59.135712","MEAN_MOTION":14.33758444,"ECCENTRICITY":0.00703217,"INCLINATION":98.3198,"RA_OF_ASC_NODE":26.1394,"ARG_OF_PERICENTER":169.6588,"MEAN_ANOMALY":2.9895,"EPHEMERIS_TYPE":0,"CLASSIFICATION_TYPE":"U","NORAD_CAT_ID":27601,"ELEMENT_SET_NO":999,"REV_AT_EPOCH":21367,"BSTAR":0.00014745313,"MEAN_MOTION_DOT":3.8e-6,"MEAN_MOTION_DDOT":0},{"OBJECT_NAME":"CZ-4B R/B","OBJECT_ID":"2003-049C","EPOCH":"2026-03-06T10:14:09.578400","MEAN_MOTION":14.55016718,"ECCENTRICITY":0.00471376,"INCLINATION":98.6877,"RA_OF_ASC_NODE":60.2032,"ARG_OF_PERICENTER":241.0713,"MEAN_ANOMALY":118.5751,"EPHEMERIS_TYPE":0,"CLASSIFICATION_TYPE":"U","NORAD_CAT_ID":28059,"ELEMENT_SET_NO":999,"REV_AT_EPOCH":18612,"BSTAR":0.0001414261,"MEAN_MOTION_DOT":5.66e-6,"MEAN_MOTION_DDOT":0},{"OBJECT_NAME":"CZ-2C R/B","OBJECT_ID":"2004-012C","EPOCH":"2026-03-06T14:27:44.111232","MEAN_MOTION":15.64069108,"ECCENTRICITY":0.00132595,"INCLINATION":97.7237,"RA_OF_ASC_NODE":130.6038,"ARG_OF_PERICENTER":321.9076,"MEAN_ANOMALY":38.1243,"EPHEMERIS_TYPE":0,"CLASSIFICATION_TYPE":"U","NORAD_CAT_ID":28222,"ELEMENT_SET_NO":999,"REV_AT_EPOCH":20379,"BSTAR":0.00072935745,"MEAN_MOTION_DOT":0.00069578,"MEAN_MOTION_DDOT":0},{"OBJECT_NAME":"SL-16 R/B","OBJECT_ID":"2004-021B","EPOCH":"2026-03-06T11:41:24.160416","MEAN_MOTION":14.14598982,"ECCENTRICITY":0.00038143,"INCLINATION":70.9992,"RA_OF_ASC_NODE":239.2136,"ARG_OF_PERICENTER":14.642,"MEAN_ANOMALY":345.4812,"EPHEMERIS_TYPE":0,"CLASSIFICATION_TYPE":"U","NORAD_CAT_ID":28353,"ELEMENT_SET_NO":999,"REV_AT_EPOCH":12238,"BSTAR":-8.6555901e-5,"MEAN_MOTION_DOT":-2.14e-6,"MEAN_MOTION_DDOT":0},{"OBJECT_NAME":"CZ-4B R/B","OBJECT_ID":"2004-035C","EPOCH":"2026-03-06T12:08:55.807008","MEAN_MOTION":15.28993105,"ECCENTRICITY":0.00313279,"INCLINATION":97.3498,"RA_OF_ASC_NODE":99.7865,"ARG_OF_PERICENTER":343.1519,"MEAN_ANOMALY":16.8678,"EPHEMERIS_TYPE":0,"CLASSIFICATION_TYPE":"U","NORAD_CAT_ID":28415,"ELEMENT_SET_NO":999,"REV_AT_EPOCH":17942,"BSTAR":0.00035419878,"MEAN_MOTION_DOT":0.00010046,"MEAN_MOTION_DDOT":0},{"OBJECT_NAME":"CZ-2C R/B","OBJECT_ID":"2004-046B","EPOCH":"2026-03-06T07:55:31.058112","MEAN_MOTION":14.26990691,"ECCENTRICITY":0.0139692,"INCLINATION":98.1986,"RA_OF_ASC_NODE":340.5232,"ARG_OF_PERICENTER":164.347,"MEAN_ANOMALY":196.2098,"EPHEMERIS_TYPE":0,"CLASSIFICATION_TYPE":"U","NORAD_CAT_ID":28480,"ELEMENT_SET_NO":999,"REV_AT_EPOCH":10802,"BSTAR":7.3667235e-5,"MEAN_MOTION_DOT":1.58e-6,"MEAN_MOTION_DDOT":0},{"OBJECT_NAME":"ARIANE 5 R/B","OBJECT_ID":"2004-049H","EPOCH":"2026-03-06T09:34:32.342016","MEAN_MOTION":14.85258905,"ECCENTRICITY":0.00841731,"INCLINATION":98.2619,"RA_OF_ASC_NODE":233.7328,"ARG_OF_PERICENTER":2.6061,"MEAN_ANOMALY":357.5574,"EPHEMERIS_TYPE":0,"CLASSIFICATION_TYPE":"U","NORAD_CAT_ID":28499,"ELEMENT_SET_NO":999,"REV_AT_EPOCH":14530,"BSTAR":0.00012595149,"MEAN_MOTION_DOT":1.086e-5,"MEAN_MOTION_DDOT":0}]
